[{"OBJECT_NAME":"ONEWEB-0458","OBJECT_ID":"2022-012AC","EPOCH":"2026-02-16T00:13:50.650464","MEAN_MOTION":13.10375037,"ECCENTRICITY":0.00018051,"INCLINATION":87.8762,"RA_OF_ASC_NODE":60.3941,"ARG_OF_PERICENTER":84.5969,"MEAN_ANOMALY":275.5364,"EPHEMERIS_TYPE":0,"CLASSIFICATION_TYPE":"U","NORAD_CAT_ID":51648,"ELEMENT_SET_NO":999,"REV_AT_EPOCH":19343,"BSTAR":0.0011804213,"MEAN_MOTION_DOT":4.25e-6,"MEAN_MOTION_DDOT":0},{"OBJECT_NAME":"ONEWEB-0461","OBJECT_ID":"2022-012AD","EPOCH":"2026-02-16T02:39:41.918112","MEAN_MOTION":13.17648851,"ECCENTRICITY":0.0001998,"INCLINATION":87.9122,"RA_OF_ASC_NODE":29.8961,"ARG_OF_PERICENTER":85.6511,"MEAN_ANOMALY":274.4849,"EPHEMERIS_TYPE":0,"CLASSIFICATION_TYPE":"U","NORAD_CAT_ID":51649,"ELEMENT_SET_NO":999,"REV_AT_EPOCH":19794,"BSTAR":0.00016273112,"MEAN_MOTION_DOT":7.6e-7,"MEAN_MOTION_DDOT":0},{"OBJECT_NAME":"ONEWEB-0463","OBJECT_ID":"2022-012AE","EPOCH":"2026-02-15T22:34:16.339296","MEAN_MOTION":13.17648146,"ECCENTRICITY":0.000203,"INCLINATION":87.9112,"RA_OF_ASC_NODE":29.9642,"ARG_OF_PERICENTER":86.8022,"MEAN_ANOMALY":273.3342,"EPHEMERIS_TYPE":0,"CLASSIFICATION_TYPE":"U","NORAD_CAT_ID":51650,"ELEMENT_SET_NO":999,"REV_AT_EPOCH":19770,"BSTAR":8.0734e-5,"MEAN_MOTION_DOT":4.4e-7,"MEAN_MOTION_DDOT":0},{"OBJECT_NAME":"ONEWEB-0464","OBJECT_ID":"2022-012AF","EPOCH":"2026-02-16T01:59:00.825216","MEAN_MOTION":13.10375463,"ECCENTRICITY":0.00016364,"INCLINATION":87.8755,"RA_OF_ASC_NODE":60.4094,"ARG_OF_PERICENTER":94.5297,"MEAN_ANOMALY":265.6018,"EPHEMERIS_TYPE":0,"CLASSIFICATION_TYPE":"U","NORAD_CAT_ID":51651,"ELEMENT_SET_NO":999,"REV_AT_EPOCH":19346,"BSTAR":0.00054126283,"MEAN_MOTION_DOT":2.02e-6,"MEAN_MOTION_DDOT":0},{"OBJECT_NAME":"ONEWEB-0468","OBJECT_ID":"2022-012AG","EPOCH":"2026-02-16T02:08:35.694528","MEAN_MOTION":13.10376589,"ECCENTRICITY":0.00014919,"INCLINATION":87.8758,"RA_OF_ASC_NODE":60.4016,"ARG_OF_PERICENTER":94.412,"MEAN_ANOMALY":265.7177,"EPHEMERIS_TYPE":0,"CLASSIFICATION_TYPE":"U","NORAD_CAT_ID":51652,"ELEMENT_SET_NO":999,"REV_AT_EPOCH":19344,"BSTAR":0.0011414022,"MEAN_MOTION_DOT":4.11e-6,"MEAN_MOTION_DDOT":0},{"OBJECT_NAME":"ONEWEB-0473","OBJECT_ID":"2022-012AH","EPOCH":"2026-02-16T01:47:02.925888","MEAN_MOTION":13.10375729,"ECCENTRICITY":0.00017643,"INCLINATION":87.8754,"RA_OF_ASC_NODE":60.4076,"ARG_OF_PERICENTER":87.9766,"MEAN_ANOMALY":272.1563,"EPHEMERIS_TYPE":0,"CLASSIFICATION_TYPE":"U","NORAD_CAT_ID":51653,"ELEMENT_SET_NO":999,"REV_AT_EPOCH":19344,"BSTAR":-0.00062778442,"MEAN_MOTION_DOT":-2.06e-6,"MEAN_MOTION_DDOT":0},{"OBJECT_NAME":"ONEWEB-0474","OBJECT_ID":"2022-012AJ","EPOCH":"2026-02-16T01:35:05.104320","MEAN_MOTION":13.10373627,"ECCENTRICITY":0.00016052,"INCLINATION":87.8759,"RA_OF_ASC_NODE":60.3823,"ARG_OF_PERICENTER":92.8424,"MEAN_ANOMALY":267.2887,"EPHEMERIS_TYPE":0,"CLASSIFICATION_TYPE":"U","NORAD_CAT_ID":51654,"ELEMENT_SET_NO":999,"REV_AT_EPOCH":19343,"BSTAR":-0.0016195825,"MEAN_MOTION_DOT":-5.53e-6,"MEAN_MOTION_DDOT":0},{"OBJECT_NAME":"ONEWEB-0475","OBJECT_ID":"2022-012AK","EPOCH":"2026-02-15T22:51:16.492608","MEAN_MOTION":13.17648059,"ECCENTRICITY":0.0001243,"INCLINATION":87.9113,"RA_OF_ASC_NODE":29.9534,"ARG_OF_PERICENTER":76.5278,"MEAN_ANOMALY":283.5992,"EPHEMERIS_TYPE":0,"CLASSIFICATION_TYPE":"U","NORAD_CAT_ID":51655,"ELEMENT_SET_NO":999,"REV_AT_EPOCH":19772,"BSTAR":0.00011856,"MEAN_MOTION_DOT":5.9e-7,"MEAN_MOTION_DDOT":0},{"OBJECT_NAME":"ONEWEB-0490","OBJECT_ID":"2022-138A","EPOCH":"2026-02-16T06:46:57.079776","MEAN_MOTION":13.19724438,"ECCENTRICITY":0.00016304,"INCLINATION":87.9261,"RA_OF_ASC_NODE":329.0354,"ARG_OF_PERICENTER":82.2828,"MEAN_ANOMALY":277.849,"EPHEMERIS_TYPE":0,"CLASSIFICATION_TYPE":"U","NORAD_CAT_ID":54113,"ELEMENT_SET_NO":999,"REV_AT_EPOCH":16088,"BSTAR":0.00019368962,"MEAN_MOTION_DOT":9.0e-7,"MEAN_MOTION_DDOT":0},{"OBJECT_NAME":"ONEWEB-0492","OBJECT_ID":"2022-138B","EPOCH":"2026-02-16T05:34:10.430688","MEAN_MOTION":13.19724724,"ECCENTRICITY":0.00018572,"INCLINATION":87.9253,"RA_OF_ASC_NODE":329.0548,"ARG_OF_PERICENTER":83.8126,"MEAN_ANOMALY":276.3219,"EPHEMERIS_TYPE":0,"CLASSIFICATION_TYPE":"U","NORAD_CAT_ID":54114,"ELEMENT_SET_NO":999,"REV_AT_EPOCH":16088,"BSTAR":-3.534871e-5,"MEAN_MOTION_DOT":-1.0e-8,"MEAN_MOTION_DDOT":0},{"OBJECT_NAME":"ONEWEB-0495","OBJECT_ID":"2022-138C","EPOCH":"2026-02-16T06:51:30.936672","MEAN_MOTION":13.1972553,"ECCENTRICITY":0.00012095,"INCLINATION":87.9248,"RA_OF_ASC_NODE":329.0462,"ARG_OF_PERICENTER":93.3968,"MEAN_ANOMALY":266.7303,"EPHEMERIS_TYPE":0,"CLASSIFICATION_TYPE":"U","NORAD_CAT_ID":54115,"ELEMENT_SET_NO":999,"REV_AT_EPOCH":16087,"BSTAR":0.00017739999,"MEAN_MOTION_DOT":8.4e-7,"MEAN_MOTION_DDOT":0},{"OBJECT_NAME":"ONEWEB-0497","OBJECT_ID":"2022-138D","EPOCH":"2026-02-16T05:20:31.023456","MEAN_MOTION":13.19724516,"ECCENTRICITY":0.00017282,"INCLINATION":87.9252,"RA_OF_ASC_NODE":329.049,"ARG_OF_PERICENTER":80.9499,"MEAN_ANOMALY":279.1829,"EPHEMERIS_TYPE":0,"CLASSIFICATION_TYPE":"U","NORAD_CAT_ID":54116,"ELEMENT_SET_NO":999,"REV_AT_EPOCH":16085,"BSTAR":3.5517821e-5,"MEAN_MOTION_DOT":2.7e-7,"MEAN_MOTION_DDOT":0},{"OBJECT_NAME":"ONEWEB-0499","OBJECT_ID":"2022-138E","EPOCH":"2026-02-16T06:45:48.270816","MEAN_MOTION":13.19723786,"ECCENTRICITY":0.00015987,"INCLINATION":87.9251,"RA_OF_ASC_NODE":329.0475,"ARG_OF_PERICENTER":75.2621,"MEAN_ANOMALY":284.8689,"EPHEMERIS_TYPE":0,"CLASSIFICATION_TYPE":"U","NORAD_CAT_ID":54117,"ELEMENT_SET_NO":999,"REV_AT_EPOCH":16087,"BSTAR":0.0001721041,"MEAN_MOTION_DOT":8.2e-7,"MEAN_MOTION_DDOT":0},{"OBJECT_NAME":"ONEWEB-0500","OBJECT_ID":"2022-138F","EPOCH":"2026-02-16T06:49:14.053152","MEAN_MOTION":13.19725656,"ECCENTRICITY":0.00018604,"INCLINATION":87.9255,"RA_OF_ASC_NODE":329.0359,"ARG_OF_PERICENTER":79.1079,"MEAN_ANOMALY":281.0263,"EPHEMERIS_TYPE":0,"CLASSIFICATION_TYPE":"U","NORAD_CAT_ID":54118,"ELEMENT_SET_NO":999,"REV_AT_EPOCH":16088,"BSTAR":0.00015584939,"MEAN_MOTION_DOT":7.5e-7,"MEAN_MOTION_DDOT":0},{"OBJECT_NAME":"ONEWEB-0501","OBJECT_ID":"2022-138G","EPOCH":"2026-02-16T05:43:16.433760","MEAN_MOTION":13.19724456,"ECCENTRICITY":0.00014424,"INCLINATION":87.9253,"RA_OF_ASC_NODE":329.0463,"ARG_OF_PERICENTER":84.7566,"MEAN_ANOMALY":275.3731,"EPHEMERIS_TYPE":0,"CLASSIFICATION_TYPE":"U","NORAD_CAT_ID":54119,"ELEMENT_SET_NO":999,"REV_AT_EPOCH":16085,"BSTAR":-4.4455633e-5,"MEAN_MOTION_DOT":-5.0e-8,"MEAN_MOTION_DDOT":0},{"OBJECT_NAME":"ONEWEB-0502","OBJECT_ID":"2022-138H","EPOCH":"2026-02-16T05:22:47.437824","MEAN_MOTION":13.19724637,"ECCENTRICITY":0.00015005,"INCLINATION":87.9261,"RA_OF_ASC_NODE":329.0323,"ARG_OF_PERICENTER":79.1788,"MEAN_ANOMALY":280.9513,"EPHEMERIS_TYPE":0,"CLASSIFICATION_TYPE":"U","NORAD_CAT_ID":54120,"ELEMENT_SET_NO":999,"REV_AT_EPOCH":16087,"BSTAR":5.150724e-5,"MEAN_MOTION_DOT":3.4e-7,"MEAN_MOTION_DDOT":0},{"OBJECT_NAME":"ONEWEB-0503","OBJECT_ID":"2022-138J","EPOCH":"2026-02-16T06:56:02.884128","MEAN_MOTION":13.19724355,"ECCENTRICITY":0.00017759,"INCLINATION":87.926,"RA_OF_ASC_NODE":329.0231,"ARG_OF_PERICENTER":70.1466,"MEAN_ANOMALY":289.9858,"EPHEMERIS_TYPE":0,"CLASSIFICATION_TYPE":"U","NORAD_CAT_ID":54121,"ELEMENT_SET_NO":999,"REV_AT_EPOCH":16087,"BSTAR":7.4291799e-5,"MEAN_MOTION_DOT":4.3e-7,"MEAN_MOTION_DDOT":0}]
