ONEWEB-0458             
1 51648U 22012AC  26047.00961401  .00000425  00000+0  11804-2 0  9997
2 51648  87.8762  60.3941 0001805  84.5969 275.5364 13.10375037193434
ONEWEB-0461             
1 51649U 22012AD  26047.11090183  .00000076  00000+0  16273-3 0  9998
2 51649  87.9122  29.8961 0001998  85.6511 274.4849 13.17648851197946
ONEWEB-0463             
1 51650U 22012AE  26046.94046689  .00000044  00000+0  80734-4 0  9991
2 51650  87.9112  29.9642 0002030  86.8022 273.3342 13.17648146197709
ONEWEB-0464             
1 51651U 22012AF  26047.08264844  .00000202  00000+0  54126-3 0  9994
2 51651  87.8755  60.4094 0001636  94.5297 265.6018 13.10375463193469
ONEWEB-0468             
1 51652U 22012AG  26047.08930202  .00000411  00000+0  11414-2 0  9997
2 51652  87.8758  60.4016 0001491  94.4120 265.7177 13.10376589193445
ONEWEB-0473             
1 51653U 22012AH  26047.07433942 -.00000206  00000+0 -62778-3 0  9990
2 51653  87.8754  60.4076 0001764  87.9766 272.1563 13.10375729193440
ONEWEB-0474             
1 51654U 22012AJ  26047.06603130 -.00000553  00000+0 -16196-2 0  9995
2 51654  87.8759  60.3823 0001605  92.8424 267.2887 13.10373627193433
ONEWEB-0475             
1 51655U 22012AK  26046.95227422  .00000059  00000+0  11856-3 0  9997
2 51655  87.9113  29.9534 0001243  76.5278 283.5992 13.17648059197728
ONEWEB-0490             
1 54113U 22138A   26047.28260509  .00000090  00000+0  19369-3 0  9990
2 54113  87.9261 329.0354 0001630  82.2828 277.8490 13.19724438160887
ONEWEB-0492             
1 54114U 22138B   26047.23206517 -.00000001  00000+0 -35349-4 0  9996
2 54114  87.9253 329.0548 0001857  83.8126 276.3219 13.19724724160884
ONEWEB-0495             
1 54115U 22138C   26047.28577473  .00000084  00000+0  17740-3 0  9997
2 54115  87.9248 329.0462 0001209  93.3968 266.7303 13.19725530160877
ONEWEB-0497             
1 54116U 22138D   26047.22258129  .00000027  00000+0  35518-4 0  9997
2 54116  87.9252 329.0490 0001728  80.9499 279.1829 13.19724516160853
ONEWEB-0499             
1 54117U 22138E   26047.28180869  .00000082  00000+0  17210-3 0  9998
2 54117  87.9251 329.0475 0001598  75.2621 284.8689 13.19723786160872
ONEWEB-0500             
1 54118U 22138F   26047.28419043  .00000075  00000+0  15585-3 0  9993
2 54118  87.9255 329.0359 0001860  79.1079 281.0263 13.19725656160886
ONEWEB-0501             
1 54119U 22138G   26047.23838465 -.00000005  00000+0 -44456-4 0  9997
2 54119  87.9253 329.0463 0001442  84.7566 275.3731 13.19724456160850
ONEWEB-0502             
1 54120U 22138H   26047.22416016  .00000034  00000+0  51507-4 0  9997
2 54120  87.9261 329.0323 0001500  79.1788 280.9513 13.19724637160878
ONEWEB-0503             
1 54121U 22138J   26047.28892227  .00000043  00000+0  74292-4 0  9992
2 54121  87.9260 329.0231 0001775  70.1466 289.9858 13.19724355160872
